NORAD_CAT_ID,OBJECT_NAME,OBJECT_TYPE,EPOCH,MEAN_MOTION,ECCENTRICITY,INCLINATION,RA_OF_ASC_NODE,ARG_OF_PERICENTER,MEAN_ANOMALY,BSTAR,MEAN_MOTION_DOT,MEAN_MOTION_DDOT,TLE_LINE0,TLE_LINE1,TLE_LINE2,SEMIMAJOR_AXIS,PERIOD,APOGEE,PERIGEE,DECAYED
48148,STARLINK-2491,PAYLOAD,2021-08-05 07:06:30,15.06392705,0.00019219999999999998,53.056999999999995,141.717,64.2635,295.8552,0.00013268,1.695e-05,0.0,0 STARLINK-2491,1 48148U 21027BJ  21217.29618765  .00001695  00000-0  13268-3 0  9998,2 48148  53.0570 141.7170 0001922  64.2635 295.8552 15.06392705 19192,6925.371,95.59299999999999,548.567,545.905,0.0
48148,STARLINK-2491,PAYLOAD,2021-08-05 11:53:07,15.06388698,0.0001908,53.0569,140.8237,64.9684,295.1503,0.00019981,2.695e-05,0.0,0 STARLINK-2491,1 48148U 21027BJ  21217.49522982  .00002695  00000-0  19981-3 0  9994,2 48148  53.0569 140.8237 0001908  64.9684 295.1503 15.06388698 19611,6925.3830000000025,95.59299999999999,548.57,545.927,0.0
48148,STARLINK-2491,PAYLOAD,2021-08-06 06:59:36,15.06396687,0.000192,53.0568,137.2498,66.5037,293.6153,0.00017488,2.324e-05,0.0,0 STARLINK-2491,1 48148U 21027BJ  21218.29139040  .00002324  00000-0  17488-3 0  9991,2 48148  53.0568 137.2498 0001920  66.5037 293.6153 15.06396687 19737,6925.359,95.59200000000001,548.553,545.894,0.0
48148,STARLINK-2491,PAYLOAD,2021-08-06 11:46:13,15.06398506,0.0001916,53.0568,136.3564,66.9631,293.156,0.00017282,2.293e-05,0.0,0 STARLINK-2491,1 48148U 21027BJ  21218.49042966  .00002293  00000-0  17282-3 0  9990,2 48148  53.0568 136.3564 0001916  66.9631 293.1560 15.06398506 19379,6925.353,95.59200000000001,548.545,545.891,0.0
48148,STARLINK-2491,PAYLOAD,2021-08-07 02:06:03,15.06411266,0.0001943,53.0568,133.6759,67.7864,292.3331,6.8281e-05,7.36e-06,0.0,0 STARLINK-2491,1 48148U 21027BJ  21219.08754474  .00000736  00000-0  68281-4 0  9996,2 48148  53.0568 133.6759 0001943  67.7864 292.3331 15.06411266 19468,6925.314,95.59100000000001,548.525,545.8330000000002,0.0
48148,STARLINK-2491,PAYLOAD,2021-08-07 06:52:40,15.06412194,0.0001955,53.0569,132.7824,67.9027,292.2169,7.1263e-05,7.8e-06,0.0,0 STARLINK-2491,1 48148U 21027BJ  21219.28658251  .00000780  00000-0  71263-4 0  9997,2 48148  53.0569 132.7824 0001955  67.9027 292.2169 15.06412194 19883,6925.311,95.59100000000001,548.53,545.822,0.0
48148,STARLINK-2491,PAYLOAD,2021-08-07 11:39:17,15.06413814,0.000197,53.0569,131.889,67.9925,292.1273,7.358e-05,8.15e-06,0.0,0 STARLINK-2491,1 48148U 21027BJ  21219.48562004  .00000815  00000-0  73580-4 0  9992,2 48148  53.0569 131.8890 0001970  67.9925 292.1273 15.06413814 19919,6925.306,95.59100000000001,548.536,545.807,0.0
48148,STARLINK-2491,PAYLOAD,2021-08-08 03:34:41,15.06402663,0.0001982,53.0569,128.9106,69.6316,290.4886,-5.1013999999999996e-05,-1.042e-05,0.0,0 STARLINK-2491,1 48148U 21027BJ  21220.14909576 -.00001042  00000-0 -51014-4 0  9999,2 48148  53.0569 128.9106 0001982  69.6316 290.4886 15.06402663 19621,6925.34,95.59200000000001,548.578,545.8330000000002,0.0
48148,STARLINK-2491,PAYLOAD,2021-08-08 05:10:14,15.06402668,0.0001981,53.0569,128.6128,69.5937,290.5265,-5.0452e-05,-1.033e-05,0.0,0 STARLINK-2491,1 48148U 21027BJ  21220.21544232 -.00001033  00000-0 -50452-4 0  9996,2 48148  53.0569 128.6128 0001981  69.5937 290.5265 15.06402668 20022,6925.34,95.59200000000001,548.577,545.8330000000002,0.0
48148,STARLINK-2491,PAYLOAD,2021-08-08 17:54:32,15.06404287,0.00019969999999999998,53.056999999999995,126.2301,70.3186,289.8018,-4.0175999999999996e-05,-8.8e-06,0.0,0 STARLINK-2491,1 48148U 21027BJ  21220.74621306 -.00000880  00000-0 -40176-4 0  9993,2 48148  53.0570 126.2301 0001997  70.3186 289.8018 15.06404287 20109,6925.335,95.59200000000001,548.5830000000002,545.817,0.0
48148,STARLINK-2491,PAYLOAD,2021-08-09 05:03:19,15.06406257,0.0002012,53.056999999999995,124.1452,70.9294,289.1913,-3.3694e-05,-7.84e-06,0.0,0 STARLINK-2491,1 48148U 21027BJ  21221.21063715 -.00000784  00000-0 -33694-4 0  9990,2 48148  53.0570 124.1452 0002012  70.9294 289.1913 15.06406257 19786,6925.329000000002,95.59200000000001,548.5880000000002,545.8009999999998,0.0
48148,STARLINK-2491,PAYLOAD,2021-08-10 01:45:21,15.063873000000001,0.0001999,53.056999999999995,120.2736,71.7022,288.4184,-6.0435e-05,-1.181e-05,0.0,0 STARLINK-2491,1 48148U 21027BJ  21222.07316013 -.00001181  00000-0 -60435-4 0  9992,2 48148  53.0570 120.2736 0001999  71.7022 288.4184 15.06387300 19913,6925.387,95.59299999999999,548.637,545.868,0.0
48148,STARLINK-2491,PAYLOAD,2021-08-10 09:43:02,15.06387721,0.00019980000000000009,53.0571,118.7846,71.6699,288.4507,-5.0785e-05,-1.038e-05,0.0,0 STARLINK-2491,1 48148U 21027BJ  21222.40489573 -.00001038  00000-0 -50785-4 0  9999,2 48148  53.0571 118.7846 0001998  71.6699 288.4507 15.06387721 20352,6925.3859999999995,95.59299999999999,548.635,545.867,0.0
48148,STARLINK-2491,PAYLOAD,2021-08-10 20:51:49,15.06389114,0.0002005,53.0571,116.6998,72.6276,287.4932,-5.119100000000001e-05,-1.044e-05,0.0,0 STARLINK-2491,1 48148U 21027BJ  21222.86932543 -.00001044  00000-0 -51191-4 0  9998,2 48148  53.0571 116.6998 0002005  72.6276 287.4932 15.06389114 20426,6925.382,95.59299999999999,548.635,545.8580000000002,0.0
48148,STARLINK-2491,PAYLOAD,2021-08-11 09:36:08,15.06391399,0.0002011,53.0571,114.3172,73.2086,286.9124,-4.298600000000001e-05,-9.22e-06,0.0,0 STARLINK-2491,1 48148U 21027BJ  21223.40010149 -.00000922  00000-0 -42986-4 0  9994,2 48148  53.0571 114.3172 0002011  73.2086 286.9124 15.06391399 20119,6925.375,95.59299999999999,548.633,545.847,0.0
48148,STARLINK-2491,PAYLOAD,2021-08-11 22:20:27,15.06386912,0.000199,53.0571,111.9347,74.1288,285.992,6.3191e-05,6.59e-06,0.0,0 STARLINK-2491,1 48148U 21027BJ  21223.93087935  .00000659  00000-0  63191-4 0  9995,2 48148  53.0571 111.9347 0001990  74.1288 285.9920 15.06386912 20584,6925.389,95.59299999999999,548.632,545.876,0.0
48148,STARLINK-2491,PAYLOAD,2021-08-12 09:29:14,15.06388437,0.0002016,53.0572,109.8499,74.7914,285.3298,6.2143e-05,6.44e-06,0.0,0 STARLINK-2491,1 48148U 21027BJ  21224.39530937  .00000644  00000-0  62143-4 0  9991,2 48148  53.0572 109.8499 0002016  74.7914 285.3298 15.06388437 20655,6925.384,95.59299999999999,548.645,545.8530000000002,0.0
48148,STARLINK-2491,PAYLOAD,2021-08-12 17:26:56,15.0638978,0.0002032,53.0572,108.3607,76.92399999999998,283.1976,4.9985e-05,4.63e-06,0.0,0 STARLINK-2491,1 48148U 21027BJ  21224.72704486  .00000463  00000-0  49985-4 0  9998,2 48148  53.0572 108.3607 0002032  76.9240 283.1976 15.06389780 20318,6925.38,95.59299999999999,548.6519999999998,545.8380000000002,0.0
48148,STARLINK-2491,PAYLOAD,2021-08-13 09:22:20,15.0639376,0.0002064,53.0573,105.3825,77.4888,282.6332,6.2778e-05,6.53e-06,0.0,0 STARLINK-2491,1 48148U 21027BJ  21225.39051260  .00000653  00000-0  62778-4 0  9993,2 48148  53.0573 105.3825 0002064  77.4888 282.6332 15.06393760 20804,6925.368,95.59299999999999,548.6619999999998,545.803,0.0
48148,STARLINK-2491,PAYLOAD,2021-08-13 22:06:39,15.06395349,0.00020800000000000001,53.0572,102.9997,78.7271,281.3952,5.1274e-05,4.82e-06,0.0,0 STARLINK-2491,1 48148U 21027BJ  21225.92128748  .00000482  00000-0  51274-4 0  9997,2 48148  53.0572 102.9997 0002080  78.7271 281.3952 15.06395349 20881,6925.363,95.59200000000001,548.668,545.7869999999998,0.0
48148,STARLINK-2491,PAYLOAD,2021-08-14 01:17:43,15.06397616,0.00021040000000000002,53.0571,102.4039,78.7245,281.39799999999997,5.1063e-05,4.79e-06,0.0,0 STARLINK-2491,1 48148U 21027BJ  21226.05397976  .00000479  00000-0  51063-4 0  9995,2 48148  53.0571 102.4039 0002104  78.7245 281.3980 15.06397616 20510,6925.356,95.59200000000001,548.678,545.764,0.0
48148,STARLINK-2491,PAYLOAD,2021-08-14 09:15:25,15.06398422,0.00021160000000000002,53.0572,100.9148,78.9465,281.1762,6.0738e-05,6.23e-06,0.0,0 STARLINK-2491,1 48148U 21027BJ  21226.38571282  .00000623  00000-0  60738-4 0  9995,2 48148  53.0572 100.9148 0002116  78.9465 281.1762 15.06398422 20954,6925.353,95.59200000000001,548.684,545.753,0.0
48148,STARLINK-2491,PAYLOAD,2021-08-14 15:37:35,15.063990400000002,0.000213,53.0571,99.7233,80.0544,280.0686,3.9467e-05,3.06e-06,0.0,0 STARLINK-2491,1 48148U 21027BJ  21226.65110016  .00000306  00000-0  39467-4 0  9992,2 48148  53.0571  99.7233 0002130  80.0544 280.0686 15.06399040 20995,6925.352,95.59200000000001,548.692,545.741,0.0
48148,STARLINK-2491,PAYLOAD,2021-08-15 01:10:49,15.06401163,0.000215,53.0571,97.9363,80.6794,279.4438,5.2543e-05,5.01e-06,0.0,0 STARLINK-2491,1 48148U 21027BJ  21227.04917853  .00000501  00000-0  52543-4 0  9997,2 48148  53.0571  97.9363 0002150  80.6794 279.4438 15.06401163 21059,6925.345,95.59200000000001,548.6990000000002,545.721,0.0
48148,STARLINK-2491,PAYLOAD,2021-08-15 18:41:44,15.06405233,0.0002171,53.0571,94.6601,81.9315,278.192,4.6833000000000004e-05,4.16e-06,0.0,0 STARLINK-2491,1 48148U 21027BJ  21227.77898859  .00000416  00000-0  46833-4 0  9991,2 48148  53.0571  94.6601 0002171  81.9315 278.1920 15.06405233 20776,6925.333000000001,95.59200000000001,548.701,545.694,0.0
48148,STARLINK-2491,PAYLOAD,2021-08-16 01:03:53,15.06406596,0.0002198,53.0571,93.4687,82.8529,277.2709,5.4712e-05,5.33e-06,0.0,0 STARLINK-2491,1 48148U 21027BJ  21228.04437336  .00000533  00000-0  54712-4 0  9996,2 48148  53.0571  93.4687 0002198  82.8529 277.2709 15.06406596 21200,6925.328,95.59200000000001,548.716,545.6709999999998,0.0
48148,STARLINK-2491,PAYLOAD,2021-08-16 18:34:50,15.06396238,0.00022319999999999998,53.0572,90.1925,84.3521,275.7722,-6.304e-05,-1.221e-05,0.0,0 STARLINK-2491,1 48148U 21027BJ  21228.77419703 -.00001221  00000-0 -63040-4 0  9995,2 48148  53.0572  90.1925 0002232  84.3521 275.7722 15.06396238 20925,6925.36,95.59200000000001,548.771,545.679,0.0
48148,STARLINK-2491,PAYLOAD,2021-08-16 21:45:55,15.06395931,0.00021959999999999997,53.0571,89.5968,83.9968,276.1271,-5.7905e-05,-1.144e-05,0.0,0 STARLINK-2491,1 48148U 21027BJ  21228.90689074 -.00001144  00000-0 -57905-4 0  9997,2 48148  53.0571  89.5968 0002196  83.9968 276.1271 15.06395931 21331,6925.361,95.59200000000001,548.747,545.705,0.0
